COSMOS 2425 (716)       
1 29670U 06062A   21338.82244819  .00000029  00000+0  00000+0 0  9992
2 29670  64.8022 249.6965 0024532 345.4141 194.8632  2.13110425116300
COSMOS 2433 (720)       
1 32275U 07052A   21338.74279306 -.00000045  00000+0  00000+0 0  9996
2 32275  66.0784  11.1329 0004885 240.0537  45.1371  2.13104321109812
COSMOS 2432 (719)       
1 32276U 07052B   21339.28243140 -.00000048  00000+0  00000+0 0  9997
2 32276  66.0916  11.2139 0009980 314.1688 333.8210  2.13103488109824
COSMOS 2434 (721)       
1 32393U 07065A   21339.05197075  .00000031  00000+0  00000+0 0  9992
2 32393  64.4218 248.0684 0002113  68.6731 342.5845  2.13103138108537
COSMOS 2436 (723)       
1 32395U 07065C   21338.67937795  .00000031  00000+0  00000+0 0  9992
2 32395  64.4308 248.1364 0015823 358.1327 263.2826  2.13102933108456
COSMOS 2456 (730)       
1 36111U 09070A   21338.76627959  .00000048  00000+0  00000+0 0  9996
2 36111  64.3085 127.7388 0001632 347.7845  12.6030  2.13099225 93193
COSMOS 2457 (733)       
1 36112U 09070B   21338.93570819  .00000047  00000+0  00000+0 0  9997
2 36112  64.2912 127.6136 0006863 148.8624 107.2488  2.13101429 93196
COSMOS 2459 (731)       
1 36400U 10007A   21339.12135203 -.00000047  00000+0  00000+0 0  9996
2 36400  65.9714  10.0231 0025837 345.1702  91.1153  2.13112597 91541
COSMOS 2461 (735)       
1 36401U 10007B   21338.78321065 -.00000045  00000+0  00000+0 0  9999
2 36401  65.9669   9.9981 0018517   1.1003 172.7336  2.13103717 91543
COSMOS 2460 (732)       
1 36402U 10007C   21338.78862730 -.00000045  00000+0  00000+0 0  9999
2 36402  65.9537   9.9518 0002216 238.6175 245.9175  2.13106524 91543
COSMOS 2464 (736)       
1 37139U 10041C   21338.42898529  .00000032  00000+0  00000+0 0  9996
2 37139  64.0208 247.2620 0029005   9.0001 143.9865  2.13100840 87598
COSMOS 2471 (701K)      
1 37372U 11009A   21339.34462594 -.00000049  00000+0  00000+0 0  9990
2 37372  65.9484   9.8611 0017557 230.6621  82.3378  2.13063250 83824
COSMOS 2476 (744)       
1 37867U 11064A   21338.74041716  .00000050  00000+0  00000+0 0  9993
2 37867  64.6006 129.0200 0019701 230.3152  14.0242  2.13101870 78532
COSMOS 2477 (745)       
1 37868U 11064B   21339.40866649  .00000047  00000+0  00000+0 0  9994
2 37868  64.6086 129.0598 0017053 230.4619 344.7782  2.13101700 78509
COSMOS 2475 (743)       
1 37869U 11064C   21338.79090740  .00000050  00000+0  00000+0 0  9991
2 37869  64.6158 129.0871 0020423 252.3392 166.8485  2.13101930 78508
COSMOS 2485 (747)       
1 39155U 13019A   21338.66904709  .00000051  00000+0  00000+0 0  9999
2 39155  64.7656 129.4084 0020355 226.0742   7.9732  2.13101904 67007
COSMOS 2492 (754)       
1 39620U 14012A   21339.20668339 -.00000048  00000+0  00000+0 0  9994
2 39620  65.8417   9.6453 0013217 313.6825   7.4441  2.13103288 59969
COSMOS 2500 (755)       
1 40001U 14032A   21339.03931178 -.00000047  00000+0  00000+0 0  9995
2 40001  65.7825   9.5266 0008251 210.7650 201.1380  2.13102448 58187
COSMOS 2501 (702K)      
1 40315U 14075A   21339.08282615  .00000031  00000+0  00000+0 0  9992
2 40315  63.7305 247.9821 0017346 211.6620  40.7098  2.13101336 54581
COSMOS 2514 (751)       
1 41330U 16008A   21338.97110630 -.00000047  00000+0  00000+0 0  9990
2 41330  65.5836   9.2695 0012082 217.4308 325.6137  2.13102849 45348
COSMOS 2516 (753)       
1 41554U 16032A   21338.74868054  .00000031  00000+0  00000+0 0  9992
2 41554  63.9562 248.2154 0013459 220.2218  51.1494  2.13106314 42941
COSMOS 2522 (752)       
1 42939U 17055A   21339.41649391  .00000030  00000+0  00000+0 0  9991
2 42939  64.1900 248.5305 0007809 251.3046  32.2670  2.13102158 32717
COSMOS 2527 (756)       
1 43508U 18053A   21338.86841481  .00000050  00000+0  00000+0 0  9997
2 43508  64.9289 129.3610 0007021 211.7189  43.5009  2.13102555 26992
COSMOS 2529 (757)       
1 43687U 18086A   21338.38678499  .00000030  00000+0  00000+0 0  9993
2 43687  64.4048 248.8293 0010177 272.9574 256.1888  2.13102156 24009
COSMOS 2534 (758)       
1 44299U 19030A   21339.28965500  .00000030  00000+0  00000+0 0  9995
2 44299  64.4756 248.6654 0013091 291.2825 345.2242  2.13101942 19667
COSMOS 2544 (759)       
1 44850U 19088A   21339.51134419  .00000048  00000+0  00000+0 0  9993
2 44850  64.9143 129.1960 0009986 252.8778 179.1867  2.13102350 15449
COSMOS 2545 (760)       
1 45358U 20018A   21339.14628976 -.00000050  00000+0  00000+0 0  9991
2 45358  64.9181  10.0307 0011261 245.8770 115.9022  2.13102737 13393
